NORAD_CAT_ID,OBJECT_NAME,OBJECT_TYPE,EPOCH,MEAN_MOTION,ECCENTRICITY,INCLINATION,RA_OF_ASC_NODE,ARG_OF_PERICENTER,MEAN_ANOMALY,BSTAR,MEAN_MOTION_DOT,MEAN_MOTION_DDOT,TLE_LINE0,TLE_LINE1,TLE_LINE2,SEMIMAJOR_AXIS,PERIOD,APOGEE,PERIGEE,DECAYED
53799.0,STARLINK-4710,PAYLOAD,2024-08-19 03:12:10,15.08847186,0.000146,53.2163,292.0543,99.4899,260.6258,0.00032183,4.839e-05,0.0,0 STARLINK-4710,1 53799U 22111AC  24232.13345895  .00004839  00000-0  32183-3 0  9995,2 53799  53.2163 292.0543 0001460  99.4899 260.6258 15.08847186107329,6917.858,95.437,540.733,538.713,0.0
53799.0,STARLINK-4710,PAYLOAD,2024-08-19 11:09:06,15.0884474,0.0001355,53.2159,290.5651,95.2214,264.8932,0.00016805,2.388e-05,0.0,0 STARLINK-4710,1 53799U 22111AC  24232.46465974  .00002388  00000-0  16805-3 0  9992,2 53799  53.2159 290.5651 0001355  95.2214 264.8932 15.08844740108188,6917.866,95.437,540.668,538.794,0.0
53799.0,STARLINK-4710,PAYLOAD,2024-08-20 10:59:53,15.08846441,0.0001447,53.2154,286.1075,89.9262,270.1896,0.00017404,2.483e-05,0.0,0 STARLINK-4710,1 53799U 22111AC  24233.45826028  .00002483  00000-0  17404-3 0  9995,2 53799  53.2154 286.1075 0001447  89.9262 270.1896 15.08846441108335,6917.861,95.437,540.727,538.725,0.0
53799.0,STARLINK-4710,PAYLOAD,2024-08-21 10:50:41,15.08823902,0.0001386,53.2142,281.6437,112.8234,247.2904,-2.7145e-05,-7.2e-06,0.0,0 STARLINK-4710,1 53799U 22111AC  24234.45187486 -.00000720  00000-0 -27145-4 0  9992,2 53799  53.2142 281.6437 0001386 112.8234 247.2904 15.08823902107679,6917.93,95.439,540.753,538.836,0.0
53799.0,STARLINK-4710,PAYLOAD,2024-08-21 20:23:01,15.08824465,0.0001389,53.215,279.863,94.5905,265.5246,5.5461e-06,-2e-06,0.0,0 STARLINK-4710,1 53799U 22111AC  24234.84932325 -.00000200  00000-0  55461-5 0  9990,2 53799  53.2150 279.8630 0001389  94.5905 265.5246 15.08824465108540,6917.928,95.439,540.754,538.832,0.0
